HST                     
1 20580U 90037B   23259.51230616  .00004650  00000+0  23912-3 0  9993
2 20580  28.4702  19.9953 0001931 293.1958 115.7737 15.14034648635312
